DELTA 2 R/B(1)          
1 20453U 90008B   26025.55846572  .00077746  00000+0  10824-2 0  9995
2 20453  35.6057  96.6310 0100166 219.1562 140.1891 15.49978958919421
COSMOS 2058             
1 20465U 90010A   26025.60644597  .00005279  00000+0  31471-3 0  9994
2 20465  82.4650  89.8702 0011537 117.7215 242.5187 15.10919585935739
SL-14 R/B               
1 20466U 90010B   26025.18329781  .00000874  00000+0  10294-3 0  9999
2 20466  82.5045 308.2509 0021417  83.6418 276.7236 14.83524527922036
SL-14 R/B               
1 20511U 90018B   26025.63171173  .00000673  00000+0  81648-4 0  9997
2 20511  82.5199 263.3442 0015152 230.7635 129.2236 14.82099608916209
HST                     
1 20580U 90037B   26025.54142563  .00011413  00000+0  38855-3 0  9990
2 20580  28.4682 334.1933 0001747 359.4354   0.6239 15.28749958766709
SL-16 R/B               
1 20625U 90046B   26025.43374679 -.00000194  00000+0 -75596-4 0  9993
2 20625  70.9993  28.7569 0014061 359.6543   0.4568 14.15007306842271
COSMOS 2084             
1 20663U 90055A   26025.54840523  .00004854  00000+0  34892-3 0  9991
2 20663  62.7903 122.6870 0024166 181.4222 178.6814 15.05353584929825
SL-6 R/B(2)             
1 20666U 90055D   26025.40629377  .00003534  00000+0  27263-3 0  9999
2 20666  62.7841  41.0145 0018618 333.5905  26.4244 15.03334733931688
SL-8 R/B                
1 20775U 90078B   26025.21089230  .00024535  00000+0  73400-3 0  9990
2 20775  82.9048 290.3623 0368148 159.6610 201.9727 14.87537831802833
SL-8 R/B                
1 21088U 91006B   26025.55029883  .00000029  00000+0  13183-4 0  9990
2 21088  82.9410 202.1226 0023027 153.3052 265.5163 13.77492020758130
OKEAN-3                 
1 21397U 91039A   26025.45187452  .00005839  00000+0  41473-3 0  9991
2 21397  82.5166  18.7193 0015878 114.1809 246.1079 15.04441545858535
COSMOS 2151             
1 21422U 91042A   26025.59016554  .00003189  00000+0  25465-3 0  9992
2 21422  82.4976 125.2431 0012109 198.5361 161.5423 14.99915797856735
