CCSDS_OMM_VERS = 2.0
CREATION_DATE  = 
ORIGINATOR     = 

OBJECT_NAME    = DELTA 2 R/B(1)
OBJECT_ID      = 1990-008B
CENTER_NAME    = EARTH
REF_FRAME      = TEME
TIME_SYSTEM    = UTC
MEAN_ELEMENT_THEORY = SGP/SGP4

EPOCH          = 2026-01-25T13:24:11.438208
MEAN_MOTION    = 15.49978958
ECCENTRICITY   = .01001663
INCLINATION    = 35.6057
RA_OF_ASC_NODE = 96.6310
ARG_OF_PERICENTER = 219.1562
MEAN_ANOMALY   = 140.1891

EPHEMERIS_TYPE = 0
CLASSIFICATION_TYPE = U
NORAD_CAT_ID   = 20453
ELEMENT_SET_NO = 999
REV_AT_EPOCH   = 91942
BSTAR          = .10824273E-2
MEAN_MOTION_DOT = .77746E-3
MEAN_MOTION_DDOT = 0

CCSDS_OMM_VERS = 2.0
CREATION_DATE  = 
ORIGINATOR     = 

OBJECT_NAME    = COSMOS 2058
OBJECT_ID      = 1990-010A
CENTER_NAME    = EARTH
REF_FRAME      = TEME
TIME_SYSTEM    = UTC
MEAN_ELEMENT_THEORY = SGP/SGP4

EPOCH          = 2026-01-25T14:33:16.931808
MEAN_MOTION    = 15.10919585
ECCENTRICITY   = .00115373
INCLINATION    = 82.4650
RA_OF_ASC_NODE = 89.8702
ARG_OF_PERICENTER = 117.7215
MEAN_ANOMALY   = 242.5187

EPHEMERIS_TYPE = 0
CLASSIFICATION_TYPE = U
NORAD_CAT_ID   = 20465
ELEMENT_SET_NO = 999
REV_AT_EPOCH   = 93573
BSTAR          = .31470855E-3
MEAN_MOTION_DOT = .5279E-4
MEAN_MOTION_DDOT = 0

CCSDS_OMM_VERS = 2.0
CREATION_DATE  = 
ORIGINATOR     = 

OBJECT_NAME    = SL-14 R/B
OBJECT_ID      = 1990-010B
CENTER_NAME    = EARTH
REF_FRAME      = TEME
TIME_SYSTEM    = UTC
MEAN_ELEMENT_THEORY = SGP/SGP4

EPOCH          = 2026-01-25T04:23:56.930784
MEAN_MOTION    = 14.83524527
ECCENTRICITY   = .00214175
INCLINATION    = 82.5045
RA_OF_ASC_NODE = 308.2509
ARG_OF_PERICENTER = 83.6418
MEAN_ANOMALY   = 276.7236

EPHEMERIS_TYPE = 0
CLASSIFICATION_TYPE = U
NORAD_CAT_ID   = 20466
ELEMENT_SET_NO = 999
REV_AT_EPOCH   = 92203
BSTAR          = .1029444E-3
MEAN_MOTION_DOT = .874E-5
MEAN_MOTION_DDOT = 0

CCSDS_OMM_VERS = 2.0
CREATION_DATE  = 
ORIGINATOR     = 

OBJECT_NAME    = SL-14 R/B
OBJECT_ID      = 1990-018B
CENTER_NAME    = EARTH
REF_FRAME      = TEME
TIME_SYSTEM    = UTC
MEAN_ELEMENT_THEORY = SGP/SGP4

EPOCH          = 2026-01-25T15:09:39.893472
MEAN_MOTION    = 14.82099608
ECCENTRICITY   = .00151528
INCLINATION    = 82.5199
RA_OF_ASC_NODE = 263.3442
ARG_OF_PERICENTER = 230.7635
MEAN_ANOMALY   = 129.2236

EPHEMERIS_TYPE = 0
CLASSIFICATION_TYPE = U
NORAD_CAT_ID   = 20511
ELEMENT_SET_NO = 999
REV_AT_EPOCH   = 91620
BSTAR          = .81648455E-4
MEAN_MOTION_DOT = .673E-5
MEAN_MOTION_DDOT = 0

CCSDS_OMM_VERS = 2.0
CREATION_DATE  = 
ORIGINATOR     = 

OBJECT_NAME    = HST
OBJECT_ID      = 1990-037B
CENTER_NAME    = EARTH
REF_FRAME      = TEME
TIME_SYSTEM    = UTC
MEAN_ELEMENT_THEORY = SGP/SGP4

EPOCH          = 2026-01-25T12:59:39.174432
MEAN_MOTION    = 15.28749958
ECCENTRICITY   = .00017478
INCLINATION    = 28.4682
RA_OF_ASC_NODE = 334.1933
ARG_OF_PERICENTER = 359.4354
MEAN_ANOMALY   = 0.6239

EPHEMERIS_TYPE = 0
CLASSIFICATION_TYPE = U
NORAD_CAT_ID   = 20580
ELEMENT_SET_NO = 999
REV_AT_EPOCH   = 76670
BSTAR          = .38855133E-3
MEAN_MOTION_DOT = .11413E-3
MEAN_MOTION_DDOT = 0

CCSDS_OMM_VERS = 2.0
CREATION_DATE  = 
ORIGINATOR     = 

OBJECT_NAME    = SL-16 R/B
OBJECT_ID      = 1990-046B
CENTER_NAME    = EARTH
REF_FRAME      = TEME
TIME_SYSTEM    = UTC
MEAN_ELEMENT_THEORY = SGP/SGP4

EPOCH          = 2026-01-25T10:24:35.722656
MEAN_MOTION    = 14.15007306
ECCENTRICITY   = .00140611
INCLINATION    = 70.9993
RA_OF_ASC_NODE = 28.7569
ARG_OF_PERICENTER = 359.6543
MEAN_ANOMALY   = 0.4568

EPHEMERIS_TYPE = 0
CLASSIFICATION_TYPE = U
NORAD_CAT_ID   = 20625
ELEMENT_SET_NO = 999
REV_AT_EPOCH   = 84227
BSTAR          = -.75595966E-4
MEAN_MOTION_DOT = -.194E-5
MEAN_MOTION_DDOT = 0

CCSDS_OMM_VERS = 2.0
CREATION_DATE  = 
ORIGINATOR     = 

OBJECT_NAME    = COSMOS 2084
OBJECT_ID      = 1990-055A
CENTER_NAME    = EARTH
REF_FRAME      = TEME
TIME_SYSTEM    = UTC
MEAN_ELEMENT_THEORY = SGP/SGP4

EPOCH          = 2026-01-25T13:09:42.211872
MEAN_MOTION    = 15.05353584
ECCENTRICITY   = .00241664
INCLINATION    = 62.7903
RA_OF_ASC_NODE = 122.6870
ARG_OF_PERICENTER = 181.4222
MEAN_ANOMALY   = 178.6814

EPHEMERIS_TYPE = 0
CLASSIFICATION_TYPE = U
NORAD_CAT_ID   = 20663
ELEMENT_SET_NO = 999
REV_AT_EPOCH   = 92982
BSTAR          = .34891807E-3
MEAN_MOTION_DOT = .4854E-4
MEAN_MOTION_DDOT = 0

CCSDS_OMM_VERS = 2.0
CREATION_DATE  = 
ORIGINATOR     = 

OBJECT_NAME    = SL-6 R/B(2)
OBJECT_ID      = 1990-055D
CENTER_NAME    = EARTH
REF_FRAME      = TEME
TIME_SYSTEM    = UTC
MEAN_ELEMENT_THEORY = SGP/SGP4

EPOCH          = 2026-01-25T09:45:03.781728
MEAN_MOTION    = 15.03334733
ECCENTRICITY   = .00186183
INCLINATION    = 62.7841
RA_OF_ASC_NODE = 41.0145
ARG_OF_PERICENTER = 333.5905
MEAN_ANOMALY   = 26.4244

EPHEMERIS_TYPE = 0
CLASSIFICATION_TYPE = U
NORAD_CAT_ID   = 20666
ELEMENT_SET_NO = 999
REV_AT_EPOCH   = 93168
BSTAR          = .27262993E-3
MEAN_MOTION_DOT = .3534E-4
MEAN_MOTION_DDOT = 0

CCSDS_OMM_VERS = 2.0
CREATION_DATE  = 
ORIGINATOR     = 

OBJECT_NAME    = SL-8 R/B
OBJECT_ID      = 1990-078B
CENTER_NAME    = EARTH
REF_FRAME      = TEME
TIME_SYSTEM    = UTC
MEAN_ELEMENT_THEORY = SGP/SGP4

EPOCH          = 2026-01-25T05:03:41.094720
MEAN_MOTION    = 14.87537831
ECCENTRICITY   = .0368148
INCLINATION    = 82.9048
RA_OF_ASC_NODE = 290.3623
ARG_OF_PERICENTER = 159.6610
MEAN_ANOMALY   = 201.9727

EPHEMERIS_TYPE = 0
CLASSIFICATION_TYPE = U
NORAD_CAT_ID   = 20775
ELEMENT_SET_NO = 999
REV_AT_EPOCH   = 80283
BSTAR          = .734E-3
MEAN_MOTION_DOT = .24535E-3
MEAN_MOTION_DDOT = 0

CCSDS_OMM_VERS = 2.0
CREATION_DATE  = 
ORIGINATOR     = 

OBJECT_NAME    = SL-8 R/B
OBJECT_ID      = 1991-006B
CENTER_NAME    = EARTH
REF_FRAME      = TEME
TIME_SYSTEM    = UTC
MEAN_ELEMENT_THEORY = SGP/SGP4

EPOCH          = 2026-01-25T13:12:25.818912
MEAN_MOTION    = 13.77492020
ECCENTRICITY   = .00230274
INCLINATION    = 82.9410
RA_OF_ASC_NODE = 202.1226
ARG_OF_PERICENTER = 153.3052
MEAN_ANOMALY   = 265.5163

EPHEMERIS_TYPE = 0
CLASSIFICATION_TYPE = U
NORAD_CAT_ID   = 21088
ELEMENT_SET_NO = 999
REV_AT_EPOCH   = 75813
BSTAR          = .13183386E-4
MEAN_MOTION_DOT = .29E-6
MEAN_MOTION_DDOT = 0

CCSDS_OMM_VERS = 2.0
CREATION_DATE  = 
ORIGINATOR     = 

OBJECT_NAME    = OKEAN-3
OBJECT_ID      = 1991-039A
CENTER_NAME    = EARTH
REF_FRAME      = TEME
TIME_SYSTEM    = UTC
MEAN_ELEMENT_THEORY = SGP/SGP4

EPOCH          = 2026-01-25T10:50:41.958528
MEAN_MOTION    = 15.04441545
ECCENTRICITY   = .00158785
INCLINATION    = 82.5166
RA_OF_ASC_NODE = 18.7193
ARG_OF_PERICENTER = 114.1809
MEAN_ANOMALY   = 246.1079

EPHEMERIS_TYPE = 0
CLASSIFICATION_TYPE = U
NORAD_CAT_ID   = 21397
ELEMENT_SET_NO = 999
REV_AT_EPOCH   = 85853
BSTAR          = .41472919E-3
MEAN_MOTION_DOT = .5839E-4
MEAN_MOTION_DDOT = 0

CCSDS_OMM_VERS = 2.0
CREATION_DATE  = 
ORIGINATOR     = 

OBJECT_NAME    = COSMOS 2151
OBJECT_ID      = 1991-042A
CENTER_NAME    = EARTH
REF_FRAME      = TEME
TIME_SYSTEM    = UTC
MEAN_ELEMENT_THEORY = SGP/SGP4

EPOCH          = 2026-01-25T14:09:50.302656
MEAN_MOTION    = 14.99915797
ECCENTRICITY   = .00121099
INCLINATION    = 82.4976
RA_OF_ASC_NODE = 125.2431
ARG_OF_PERICENTER = 198.5361
MEAN_ANOMALY   = 161.5423

EPHEMERIS_TYPE = 0
CLASSIFICATION_TYPE = U
NORAD_CAT_ID   = 21422
ELEMENT_SET_NO = 999
REV_AT_EPOCH   = 85673
BSTAR          = .254652E-3
MEAN_MOTION_DOT = .3189E-4
MEAN_MOTION_DDOT = 0

